STARLINK-2550           
1 48293U 21036T   26068.33460649  .00010862  00000+0  37817-3 0  9990
2 48293  53.1614  77.0573 0001440  84.7254 275.3911 15.30213398268353
PHISAT 2                
1 60470U 24149C   26068.78834181  .00008925  00000+0  31421-3 0  9996
2 60470  97.3806 148.6498 0001175 168.6230 191.5037 15.29548631 86792
