[{"OBJECT_NAME":"STARLINK-2550","OBJECT_ID":"2021-036T","EPOCH":"2026-03-09T08:01:50.000736","MEAN_MOTION":15.30213398,"ECCENTRICITY":0.00014405,"INCLINATION":53.1614,"RA_OF_ASC_NODE":77.0573,"ARG_OF_PERICENTER":84.7254,"MEAN_ANOMALY":275.3911,"EPHEMERIS_TYPE":0,"CLASSIFICATION_TYPE":"U","NORAD_CAT_ID":48293,"ELEMENT_SET_NO":999,"REV_AT_EPOCH":26835,"BSTAR":0.00037817273,"MEAN_MOTION_DOT":0.00010862,"MEAN_MOTION_DDOT":0},{"OBJECT_NAME":"PHISAT 2","OBJECT_ID":"2024-149C","EPOCH":"2026-03-09T18:55:12.732384","MEAN_MOTION":15.29548632,"ECCENTRICITY":0.00011753,"INCLINATION":97.3806,"RA_OF_ASC_NODE":148.6498,"ARG_OF_PERICENTER":168.623,"MEAN_ANOMALY":191.5037,"EPHEMERIS_TYPE":0,"CLASSIFICATION_TYPE":"U","NORAD_CAT_ID":60470,"ELEMENT_SET_NO":999,"REV_AT_EPOCH":8679,"BSTAR":0.00031420974,"MEAN_MOTION_DOT":8.925e-5,"MEAN_MOTION_DDOT":0}]
